{
    "links": {
        "self": "http://www.neowsapp.com/rest/v1/neo/3632677?api_key=iIulBulltgU6a56xZRHN4H3l9WmuAYTsLGpBGhQ2"
    },
    "id": "3632677",
    "neo_reference_id": "3632677",
    "name": "(2013 EX108)",
    "designation": "2013 EX108",
    "nasa_jpl_url": "http://ssd.jpl.nasa.gov/sbdb.cgi?sstr=3632677",
    "absolute_magnitude_h": 22.8,
    "estimated_diameter": {
        "kilometers": {
            "estimated_diameter_min": 0.0732073989,
            "estimated_diameter_max": 0.1636967205
        },
        "meters": {
            "estimated_diameter_min": 73.2073989347,
            "estimated_diameter_max": 163.696720474
        },
        "miles": {
            "estimated_diameter_min": 0.0454889547,
            "estimated_diameter_max": 0.1017163949
        },
        "feet": {
            "estimated_diameter_min": 240.181762721,
            "estimated_diameter_max": 537.0627483999
        }
    },
    "is_potentially_hazardous_asteroid": false,
    "close_approach_data": [
        {
            "close_approach_date": "1954-03-05",
            "close_approach_date_full": "1954-Mar-05 23:18",
            "epoch_date_close_approach": -499394520000,
            "relative_velocity": {
                "kilometers_per_second": "22.9338712096",
                "kilometers_per_hour": "82561.9363543854",
                "miles_per_hour": "51300.7765086458"
            },
            "miss_distance": {
                "astronomical": "0.2781534721",
                "lunar": "108.2017006469",
                "kilometers": "41611166.959264427",
                "miles": "25855980.1907540126"
            },
            "orbiting_body": "Earth"
        },
        {
            "close_approach_date": "2013-03-06",
            "close_approach_date_full": "2013-Mar-06 03:57",
            "epoch_date_close_approach": 1362542220000,
            "relative_velocity": {
                "kilometers_per_second": "18.7376527687",
                "kilometers_per_hour": "67455.5499671674",
                "miles_per_hour": "41914.2554782102"
            },
            "miss_distance": {
                "astronomical": "0.308510991",
                "lunar": "120.010775499",
                "kilometers": "46152587.12518917",
                "miles": "28677887.828263746"
            },
            "orbiting_body": "Earth"
        },
        {
            "close_approach_date": "2077-03-06",
            "close_approach_date_full": "2077-Mar-06 15:55",
            "epoch_date_close_approach": 3382271700000,
            "relative_velocity": {
                "kilometers_per_second": "23.4879109789",
                "kilometers_per_hour": "84556.4795239619",
                "miles_per_hour": "52540.1080686529"
            },
            "miss_distance": {
                "astronomical": "0.2885932481",
                "lunar": "112.2627735109",
                "kilometers": "43172935.212141547",
                "miles": "26826417.9832934686"
            },
            "orbiting_body": "Earth"
        },
        {
            "close_approach_date": "2154-03-07",
            "close_approach_date_full": "2154-Mar-07 22:48",
            "epoch_date_close_approach": 5812210080000,
            "relative_velocity": {
                "kilometers_per_second": "18.6716906043",
                "kilometers_per_hour": "67218.0861755354",
                "miles_per_hour": "41766.7047127931"
            },
            "miss_distance": {
                "astronomical": "0.3118964408",
                "lunar": "121.3277154712",
                "kilometers": "46659043.204261096",
                "miles": "28992585.0430952848"
            },
            "orbiting_body": "Earth"
        }
    ],
    "orbital_data": {
        "orbit_id": "4",
        "orbit_determination_date": "2017-04-06 08:46:24",
        "first_observation_date": "2013-03-15",
        "last_observation_date": "2013-03-18",
        "data_arc_in_days": 3,
        "observations_used": 30,
        "orbit_uncertainty": "9",
        "minimum_orbit_intersection": ".222104",
        "jupiter_tisserand_invariant": "5.107",
        "epoch_osculation": "2456367.5",
        "eccentricity": ".4215308744133773",
        "semi_major_axis": "1.179380738646061",
        "inclination": "36.33672564244593",
        "ascending_node_longitude": "175.9805407458012",
        "orbital_period": "467.8207414668668",
        "perihelion_distance": ".6822353446182919",
        "perihelion_argument": "231.1838135020607",
        "aphelion_distance": "1.676526132673829",
        "perihelion_time": "2456258.278436752450",
        "mean_anomaly": "84.04878040642157",
        "mean_motion": ".7695255214020836",
        "equinox": "J2000",
        "orbit_class": {
            "orbit_class_type": "APO",
            "orbit_class_description": "Near-Earth asteroid orbits which cross the Earth’s orbit similar to that of 1862 Apollo",
            "orbit_class_range": "a (semi-major axis) > 1.0 AU; q (perihelion) < 1.017 AU"
        }
    },
    "is_sentry_object": false
}